OBJECT_NAME,OBJECT_ID,EPOCH,MEAN_MOTION,ECCENTRICITY,INCLINATION,RA_OF_ASC_NODE,ARG_OF_PERICENTER,MEAN_ANOMALY,EPHEMERIS_TYPE,CLASSIFICATION_TYPE,NORAD_CAT_ID,ELEMENT_SET_NO,REV_AT_EPOCH,BSTAR,MEAN_MOTION_DOT,MEAN_MOTION_DDOT
INMARSAT GX5,2019-080B,2026-06-18T17:36:35.040096,1.00273686,.00023453,0.0349,1.4048,101.2945,79.4614,0,U,44801,999,680,0,.69E-6,0
JCSAT-18 (KACIFIC 1),2019-091A,2026-06-18T20:28:45.939936,1.00269221,.00003534,0.0382,209.1411,104.5205,50.5999,0,U,44868,999,2402,0,-.208E-5,0
ELEKTRO-L 3,2019-095A,2026-06-18T23:32:56.370336,1.00271373,.00009459,0.2627,81.5194,352.8961,261.9857,0,U,44903,999,2372,0,-.102E-5,0
SHIJIAN-20 (SJ-20),2019-097A,2026-06-18T18:15:57.407040,1.00251654,.0015658,4.9236,75.0437,50.3725,100.3800,0,U,44910,999,2371,0,.129E-5,0
TJS-5,2020-002A,2026-06-18T20:15:17.941824,1.00271618,.0007537,0.0117,344.9744,62.5491,270.8764,0,U,44978,999,2372,0,-.348E-5,0
GSAT-30,2020-005A,2026-06-18T21:52:15.640032,1.00272668,.00033562,0.0274,260.6747,177.6357,239.8846,0,U,45026,999,2352,0,-.171E-5,0
EUTELSAT KONNECT,2020-005B,2026-06-18T12:57:15.835104,1.00268521,.0001311,0.0735,95.3855,137.6450,235.2733,0,U,45027,999,2435,0,.43E-6,0
JCSAT-17,2020-013A,2026-06-18T22:07:21.691776,1.00270942,.00025732,5.3922,356.8987,87.4801,290.6320,0,U,45245,999,2325,0,-.324E-5,0
GEO-KOMPSAT-2B,2020-013B,2026-06-18T22:05:14.395200,1.00269156,.00007153,0.0459,191.9494,77.1689,97.5964,0,U,45246,999,2329,0,-.35E-5,0
BEIDOU-3 G2,2020-017A,2026-06-18T23:34:11.250624,1.00271728,.00020282,2.8683,47.3874,33.2073,260.2461,0,U,45344,999,2327,0,-.148E-5,0
AEHF-6 (USA 298),2020-022B,2026-06-18T22:08:06.619776,1.00270793,.0043083,2.5437,301.1924,17.0790,58.6846,0,U,45465,999,2303,0,-.304E-5,0
BEIDOU-3 G3,2020-040A,2026-06-18T23:42:47.925216,1.00265450,.00023581,2.4525,67.4510,336.5337,329.3952,0,U,45807,999,2208,0,-.36E-5,0
APSTAR-6D,2020-045A,2026-06-18T05:00:07.560576,1.00271950,.00022729,0.0507,93.7298,351.0752,30.7172,0,U,45863,999,2187,0,-.323E-5,0
KOREASAT 116,2020-048A,2026-06-18T22:01:44.730048,1.00268317,.00008693,0.0173,304.5046,175.2815,233.9804,0,U,45920,999,2165,0,-.368E-5,0
EXPRESS 103,2020-053A,2026-06-18T23:38:48.307776,1.00271481,.00004827,0.0120,299.7490,349.4547,69.2142,0,U,45985,999,2166,0,-.287E-5,0
EXPRESS 80,2020-053B,2026-06-18T00:54:57.029184,1.00270069,.00017401,0.0243,318.7050,214.6743,186.6231,0,U,45986,999,2163,0,0,0
BSAT-4B,2020-056A,2026-06-18T16:23:27.843360,1.00271021,.00040096,0.0543,142.3495,332.4980,147.7633,0,U,46112,999,2140,0,-.356E-5,0
MEV-2,2020-056B,2026-06-18T21:28:23.176416,1.00271761,.00001894,0.0178,304.9806,226.3646,56.8712,0,U,46113,999,8056,0,-.17E-6,0
GALAXY 30 (G-30),2020-056C,2026-06-18T15:45:02.967840,1.00272111,.00021662,0.0165,349.8313,96.1871,292.1283,0,U,46114,999,2130,0,.3E-6,0
GAOFEN-13 01,2020-071A,2026-06-18T23:45:02.710080,1.00269691,.00413723,0.5271,84.8317,123.6570,173.2001,0,U,46610,999,2093,0,-.369E-5,0
TIANTONG-1 2,2020-082A,2026-06-18T23:46:55.030080,1.00268489,.00010193,0.7876,327.8568,109.8069,311.1988,0,U,46916,999,2067,0,-.362E-5,0
LUCAS (JDRS-1),2020-089A,2026-06-18T21:46:07.615776,1.00269446,.00022999,0.0535,273.8709,150.2692,260.3198,0,U,47202,999,2043,0,-.241E-5,0
SXM-7,2020-096A,2026-06-18T21:04:20.028576,1.00272637,.00036895,0.0332,101.0725,24.0243,12.9357,0,U,47240,999,746,0,-.212E-5,0
CMS-01,2020-099A,2026-06-18T20:09:40.270752,1.00271897,.00035924,0.1030,93.9314,181.6986,16.8541,0,U,47256,999,2021,0,-.171E-5,0
TURKSAT 5A,2021-001A,2026-06-18T21:37:29.801568,1.00271937,.0000161,0.0203,62.1254,265.0690,295.2443,0,U,47306,999,1998,0,.148E-5,0
TIANTONG-1 3,2021-003A,2026-06-18T23:34:33.714624,1.00270076,.00030222,1.7548,339.4612,112.9085,250.0093,0,U,47321,999,1997,0,-.161E-5,0
TJS-6,2021-010A,2026-06-18T18:54:13.584672,1.00269806,.00029328,0.2461,264.1241,225.6315,239.2962,0,U,47613,999,1982,0,.36E-6,0
SBIRS GEO-5 (USA 315),2021-042A,2026-06-18T21:36:21.782304,1.00270914,.00013765,5.1010,329.1499,121.8762,234.0030,0,U,48618,999,1878,0,-.275E-5,0
FENGYUN 4B,2021-047A,2026-06-18T23:41:10.580928,1.00275899,.00059508,0.1583,77.7243,275.9197,13.5247,0,U,48808,999,1858,0,-.337E-5,0
SXM-8,2021-049A,2026-06-18T21:04:20.028576,1.00270026,.00050394,0.0196,19.0588,12.3391,106.6413,0,U,48838,999,1860,0,-.211E-5,0
TIANLIAN 1-05,2021-063A,2026-06-18T21:33:22.696704,1.00271902,.00005092,1.5993,80.6920,340.1162,186.4670,0,U,49011,999,1809,0,.101E-5,0
STAR ONE D2,2021-069A,2026-06-18T19:26:03.034176,1.00270132,.00020325,0.0153,340.0202,132.6885,15.7458,0,U,49055,999,1796,0,0,0
