INMARSAT GX5            
1 44801U 19080B   26169.73373889  .00000069  00000+0  00000+0 0  9990
2 44801   0.0349   1.4048 0002345 101.2945  79.4614  1.00273686  6806
JCSAT-18 (KACIFIC 1)    
1 44868U 19091A   26169.85330949 -.00000208  00000+0  00000+0 0  9994
2 44868   0.0382 209.1411 0000353 104.5205  50.5999  1.00269221 24029
ELEKTRO-L 3             
1 44903U 19095A   26169.98120799 -.00000102  00000+0  00000+0 0  9995
2 44903   0.2627  81.5194 0000945 352.8961 261.9857  1.00271373 23725
SHIJIAN-20 (SJ-20)      
1 44910U 19097A   26169.76108110  .00000129  00000+0  00000+0 0  9992
2 44910   4.9236  75.0437 0015658  50.3725 100.3800  1.00251654 23716
TJS-5                   
1 44978U 20002A   26169.84395766 -.00000348  00000+0  00000+0 0  9992
2 44978   0.0117 344.9744 0007537  62.5491 270.8764  1.00271618 23721
GSAT-30                 
1 45026U 20005A   26169.91129213 -.00000171  00000+0  00000+0 0  9994
2 45026   0.0274 260.6747 0003356 177.6357 239.8846  1.00272668 23521
EUTELSAT KONNECT        
1 45027U 20005B   26169.53976661  .00000043  00000+0  00000+0 0  9997
2 45027   0.0735  95.3855 0001311 137.6450 235.2733  1.00268521 24356
JCSAT-17                
1 45245U 20013A   26169.92177884 -.00000324  00000+0  00000+0 0  9994
2 45245   5.3922 356.8987 0002573  87.4801 290.6320  1.00270942 23253
GEO-KOMPSAT-2B          
1 45246U 20013B   26169.92030550 -.00000350  00000+0  00000+0 0  9992
2 45246   0.0459 191.9494 0000715  77.1689  97.5964  1.00269156 23295
BEIDOU-3 G2             
1 45344U 20017A   26169.98207466 -.00000148  00000+0  00000+0 0  9998
2 45344   2.8683  47.3874 0002028  33.2073 260.2461  1.00271728 23275
AEHF-6 (USA 298)        
1 45465U 20022B   26169.92229884 -.00000304  00000+0  00000+0 0  9994
2 45465   2.5437 301.1924 0043083  17.0790  58.6846  1.00270793 23033
BEIDOU-3 G3             
1 45807U 20040A   26169.98805469 -.00000360  00000+0  00000+0 0  9991
2 45807   2.4525  67.4510 0002358 336.5337 329.3952  1.00265450 22083
APSTAR-6D               
1 45863U 20045A   26169.20842084 -.00000323  00000+0  00000+0 0  9996
2 45863   0.0507  93.7298 0002272 351.0752  30.7172  1.00271950 21877
KOREASAT 116            
1 45920U 20048A   26169.91787882 -.00000368  00000+0  00000+0 0  9994
2 45920   0.0173 304.5046 0000869 175.2815 233.9804  1.00268317 21658
EXPRESS 103             
1 45985U 20053A   26169.98528134 -.00000287  00000+0  00000+0 0  9991
2 45985   0.0120 299.7490 0000482 349.4547  69.2142  1.00271481 21669
EXPRESS 80              
1 45986U 20053B   26169.03816006  .00000000  00000+0  00000+0 0  9998
2 45986   0.0243 318.7050 0001740 214.6743 186.6231  1.00270069 21630
BSAT-4B                 
1 46112U 20056A   26169.68296115 -.00000356  00000+0  00000+0 0  9992
2 46112   0.0543 142.3495 0004009 332.4980 147.7633  1.00271021 21400
MEV-2                   
1 46113U 20056B   26169.89471269 -.00000017  00000+0  00000+0 0  9995
2 46113   0.0178 304.9806 0000189 226.3646  56.8712  1.00271761 80563
GALAXY 30 (G-30)        
1 46114U 20056C   26169.65628435  .00000030  00000+0  00000+0 0  9993
2 46114   0.0165 349.8313 0002166  96.1871 292.1283  1.00272111 21306
GAOFEN-13 01            
1 46610U 20071A   26169.98961470 -.00000369  00000+0  00000+0 0  9992
2 46610   0.5271  84.8317 0041372 123.6570 173.2001  1.00269691 20938
TIANTONG-1 2            
1 46916U 20082A   26169.99091470 -.00000362  00000+0  00000+0 0  9991
2 46916   0.7876 327.8568 0001019 109.8069 311.1988  1.00268489 20673
LUCAS (JDRS-1)          
1 47202U 20089A   26169.90703259 -.00000241  00000+0  00000+0 0  9999
2 47202   0.0535 273.8709 0002299 150.2692 260.3198  1.00269446 20433
SXM-7                   
1 47240U 20096A   26169.87800959 -.00000212  00000+0  00000+0 0  9998
2 47240   0.0332 101.0725 0003689  24.0243  12.9357  1.00272637  7466
CMS-01                  
1 47256U 20099A   26169.84004943 -.00000171  00000+0  00000+0 0  9998
2 47256   0.1030  93.9314 0003592 181.6986  16.8541  1.00271897 20212
TURKSAT 5A              
1 47306U 21001A   26169.90103937  .00000148  00000+0  00000+0 0  9991
2 47306   0.0203  62.1254 0000161 265.0690 295.2443  1.00271937 19989
TIANTONG-1 3            
1 47321U 21003A   26169.98233466 -.00000161  00000+0  00000+0 0  9995
2 47321   1.7548 339.4612 0003022 112.9085 250.0093  1.00270076 19973
TJS-6                   
1 47613U 21010A   26169.78765723  .00000036  00000+0  00000+0 0  9991
2 47613   0.2461 264.1241 0002932 225.6315 239.2962  1.00269806 19821
SBIRS GEO-5 (USA 315)   
1 48618U 21042A   26169.90025211 -.00000275  00000+0  00000+0 0  9993
2 48618   5.1010 329.1499 0001376 121.8762 234.0030  1.00270914 18787
FENGYUN 4B              
1 48808U 21047A   26169.98692802 -.00000337  00000+0  00000+0 0  9992
2 48808   0.1583  77.7243 0005950 275.9197  13.5247  1.00275899 18581
SXM-8                   
1 48838U 21049A   26169.87800959 -.00000211  00000+0  00000+0 0  9990
2 48838   0.0196  19.0588 0005039  12.3391 106.6413  1.00270026 18600
TIANLIAN 1-05           
1 49011U 21063A   26169.89817936  .00000101  00000+0  00000+0 0  9992
2 49011   1.5993  80.6920 0000509 340.1162 186.4670  1.00271902 18092
STAR ONE D2             
1 49055U 21069A   26169.80975734  .00000000  00000+0  00000+0 0  9996
2 49055   0.0153 340.0202 0002032 132.6885  15.7458  1.00270132 17964
